{"type": "FeatureCollection", "name": "existing_illegal_dumping_locations", "crs": {"type": "name", "properties": {"name": "urn:ogc:def:crs:OGC:1.3:CRS84"}}, "features": [{"type": "Feature", "properties": {"Name": "waste10", "description": null, "timestamp": null, "begin": null, "end": null, "altitudeMode": null, "tessellate": -1, "extrude": 0, "visibility": -1, "drawOrder": null, "icon": null, "snippet": "", "location_id": 1, "point_number": 1}, "geometry": {"type": "Point", "coordinates": [79.97256860795876, 6.570255872172793, 0.0]}}, {"type": "Feature", "properties": {"Name": "waste10", "description": null, "timestamp": null, "begin": null, "end": null, "altitudeMode": null, "tessellate": -1, "extrude": 0, "visibility": -1, "drawOrder": null, "icon": null, "snippet": "", "location_id": 2, "point_number": 2}, "geometry": {"type": "Point", "coordinates": [79.91623691211893, 6.908530770533392, 0.0]}}, {"type": "Feature", "properties": {"Name": "waste10", "description": null, "timestamp": null, "begin": null, "end": null, "altitudeMode": null, "tessellate": -1, "extrude": 0, "visibility": -1, "drawOrder": null, "icon": null, "snippet": "", "location_id": 3, "point_number": 3}, "geometry": {"type": "Point", "coordinates": [79.91701656490513, 6.908654647517843, 0.0]}}, {"type": "Feature", "properties": {"Name": "waste10", "description": null, "timestamp": null, "begin": null, "end": null, "altitudeMode": null, "tessellate": -1, "extrude": 0, "visibility": -1, "drawOrder": null, "icon": null, "snippet": "", "location_id": 4, "point_number": 4}, "geometry": {"type": "Point", "coordinates": [79.90192084542461, 6.834192628754145, 0.0]}}, {"type": "Feature", "properties": {"Name": "waste10", "description": null, "timestamp": null, "begin": null, "end": null, "altitudeMode": null, "tessellate": -1, "extrude": 0, "visibility": -1, "drawOrder": null, "icon": null, "snippet": "", "location_id": 5, "point_number": 5}, "geometry": {"type": "Point", "coordinates": [79.90357680935121, 6.833805940485902, 0.0]}}, {"type": "Feature", "properties": {"Name": "waste10", "description": null, "timestamp": null, "begin": null, "end": null, "altitudeMode": null, "tessellate": -1, "extrude": 0, "visibility": -1, "drawOrder": null, "icon": null, "snippet": "", "location_id": 6, "point_number": 6}, "geometry": {"type": "Point", "coordinates": [79.89264386840013, 6.936707582095597, 0.0]}}, {"type": "Feature", "properties": {"Name": "waste10", "description": null, "timestamp": null, "begin": null, "end": null, "altitudeMode": null, "tessellate": -1, "extrude": 0, "visibility": -1, "drawOrder": null, "icon": null, "snippet": "", "location_id": 7, "point_number": 7}, "geometry": {"type": "Point", "coordinates": [79.89735473075254, 6.931844104325258, 0.0]}}, {"type": "Feature", "properties": {"Name": "waste10", "description": null, "timestamp": null, "begin": null, "end": null, "altitudeMode": null, "tessellate": -1, "extrude": 0, "visibility": -1, "drawOrder": null, "icon": null, "snippet": "", "location_id": 8, "point_number": 8}, "geometry": {"type": "Point", "coordinates": [79.89924715521825, 6.928049040877743, 0.0]}}, {"type": "Feature", "properties": {"Name": "waste10", "description": null, "timestamp": null, "begin": null, "end": null, "altitudeMode": null, "tessellate": -1, "extrude": 0, "visibility": -1, "drawOrder": null, "icon": null, "snippet": "", "location_id": 9, "point_number": 9}, "geometry": {"type": "Point", "coordinates": [79.91586546024729, 6.7763733604092, 0.0]}}, {"type": "Feature", "properties": {"Name": "waste10", "description": null, "timestamp": null, "begin": null, "end": null, "altitudeMode": null, "tessellate": -1, "extrude": 0, "visibility": -1, "drawOrder": null, "icon": null, "snippet": "", "location_id": 10, "point_number": 10}, "geometry": {"type": "Point", "coordinates": [79.9360169489248, 6.75782697797201, 0.0]}}, {"type": "Feature", "properties": {"Name": "waste10", "description": null, "timestamp": null, "begin": null, "end": null, "altitudeMode": null, "tessellate": -1, "extrude": 0, "visibility": -1, "drawOrder": null, "icon": null, "snippet": "", "location_id": 11, "point_number": 11}, "geometry": {"type": "Point", "coordinates": [79.97255931453384, 6.5698316078093, 0.0]}}, {"type": "Feature", "properties": {"Name": "waste10", "description": null, "timestamp": null, "begin": null, "end": null, "altitudeMode": null, "tessellate": -1, "extrude": 0, "visibility": -1, "drawOrder": null, "icon": null, "snippet": "", "location_id": 12, "point_number": 12}, "geometry": {"type": "Point", "coordinates": [79.97214968391101, 6.570035050249191, 0.0]}}, {"type": "Feature", "properties": {"Name": "waste10", "description": null, "timestamp": null, "begin": null, "end": null, "altitudeMode": null, "tessellate": -1, "extrude": 0, "visibility": -1, "drawOrder": null, "icon": null, "snippet": "", "location_id": 13, "point_number": 13}, "geometry": {"type": "Point", "coordinates": [79.97213572333378, 6.569775798171121, 0.0]}}]}