{"type": "FeatureCollection", "name": "Western_Province_Waste_Management_Facilities_Provisional", "crs": {"type": "name", "properties": {"name": "urn:ogc:def:crs:OGC:1.3:CRS84"}}, "metadata": {"description": "Provisional point layer for the nine facilities provided by the user.", "coordinate_reference_system": "WGS 84 longitude/latitude (EPSG:4326)", "important_note": "Coordinates are approximate or district/locality-level placeholders, not verified facility entrance coordinates. Do not treat this as an authoritative register of licensed facilities. Verify exact coordinates, addresses, operating status, and permitted waste types with the relevant authority/operator before analysis or public release."}, "features": [{"type": "Feature", "properties": {"id": 1, "name": "Dompe Sanitary Landfill", "district": "Gampaha", "facility_type": "Sanitary landfill", "locality": "Dompe", "coordinate_status": "Approximate location; verify with operator/authority", "source_note": "Location is approximate and not independently field-verified.", "longitude": 80.09, "latitude": 7.0}, "geometry": {"type": "Point", "coordinates": [80.09, 7.0]}}, {"type": "Feature", "properties": {"id": 2, "name": "Green Park Sanitary Landfill, Central Environmental Authority, Maligawatta, Kiridiwela", "district": "Gampaha", "facility_type": "Sanitary landfill", "locality": "Maligawatta, Kiridiwela", "coordinate_status": "Approximate location; verify with operator/authority", "source_note": "Location is approximate and not independently field-verified.", "longitude": 80.04, "latitude": 6.98}, "geometry": {"type": "Point", "coordinates": [80.04, 6.98]}}, {"type": "Feature", "properties": {"id": 3, "name": "Kaduwela Waste Management Facility", "district": "Colombo", "facility_type": "Waste management facility", "locality": "Kaduwela", "coordinate_status": "Approximate location; verify with operator/authority", "source_note": "Location is approximate and not independently field-verified.", "longitude": 80.125, "latitude": 6.934}, "geometry": {"type": "Point", "coordinates": [80.125, 6.934]}}, {"type": "Feature", "properties": {"id": 4, "name": "Waste Management Authority – Karadiyana", "district": "Colombo", "facility_type": "Waste management / resource recovery", "locality": "Karadiyana", "coordinate_status": "Approximate location; verify with operator/authority", "source_note": "Location is approximate and not independently field-verified.", "longitude": 79.9253, "latitude": 6.7906}, "geometry": {"type": "Point", "coordinates": [79.9253, 6.7906]}}, {"type": "Feature", "properties": {"id": 5, "name": "Ceylon Waste Management (CWM) E-Waste Processing Factory", "district": "Colombo", "facility_type": "E-waste", "locality": "Colombo District (exact site to confirm)", "coordinate_status": "District/locality-level placeholder; not a verified facility entrance", "source_note": "Exact address/coordinates were not supplied, so this point is a provisional district-level location.", "longitude": 79.8612, "latitude": 6.9271}, "geometry": {"type": "Point", "coordinates": [79.8612, 6.9271]}}, {"type": "Feature", "properties": {"id": 6, "name": "Ceylon Waste Management (Pvt) Ltd – Welivita", "district": "Colombo", "facility_type": "E-waste", "locality": "Welivita", "coordinate_status": "Approximate location; verify with operator/authority", "source_note": "Location is approximate and not independently field-verified.", "longitude": 80.04, "latitude": 6.93}, "geometry": {"type": "Point", "coordinates": [80.04, 6.93]}}, {"type": "Feature", "properties": {"id": 7, "name": "ECO SPINDLES (PVT)LTD (Recycling Plant)", "district": "Kalutara", "facility_type": "Plastic recycling", "locality": "Kalutara District (exact site to confirm)", "coordinate_status": "District/locality-level placeholder; not a verified facility entrance", "source_note": "Exact address/coordinates were not supplied, so this point is a provisional district-level location.", "longitude": 79.96, "latitude": 6.585}, "geometry": {"type": "Point", "coordinates": [79.96, 6.585]}}, {"type": "Feature", "properties": {"id": 8, "name": "Asia Recycling (Pvt) Ltd", "district": "Colombo", "facility_type": "Recycling", "locality": "Colombo District (exact site to confirm)", "coordinate_status": "District/locality-level placeholder; not a verified facility entrance", "source_note": "Exact address/coordinates were not supplied, so this point is a provisional district-level location.", "longitude": 79.8612, "latitude": 6.9271}, "geometry": {"type": "Point", "coordinates": [79.8612, 6.9271]}}, {"type": "Feature", "properties": {"id": 9, "name": "INSEE Ecocycle Lanka Pre-processing Facility", "district": "Gampaha", "facility_type": "Waste processing", "locality": "Katunayake area (approximate; confirm exact site)", "coordinate_status": "Approximate location; verify with operator/authority", "source_note": "Approximate point for mapping only; confirm exact facility address and operating status.", "longitude": 79.873, "latitude": 7.1647}, "geometry": {"type": "Point", "coordinates": [79.873, 7.1647]}}]}